{"type": "FeatureCollection", "features": [ {"type": "Feature", "properties": {"norad_id": 66607, "name": "STARLINK-35993", "group": "last-30-days", "lat": 35.858252822673386, "lon": -20.936313170182363, "alt_km": 398.48499522988277, "timestamp": "2025-12-09T18:55:16.023154+00:00", "meta": {"OBJECT_NAME": "STARLINK-35993", "OBJECT_ID": "2025-270V", "EPOCH": "2025-12-09T14:00:01.999872", "MEAN_MOTION": 15.55508379, "ECCENTRICITY": 0.00017347, "INCLINATION": 42.9999, "RA_OF_ASC_NODE": 211.1339, "ARG_OF_PERICENTER": 261.9631, "MEAN_ANOMALY": 149.6326, "EPHEMERIS_TYPE": 0, "CLASSIFICATION_TYPE": "U", "NORAD_CAT_ID": 66607, "ELEMENT_SET_NO": 999, "REV_AT_EPOCH": 379, "BSTAR": -0.031907429, "MEAN_MOTION_DOT": -0.02002817, "MEAN_MOTION_DDOT": 0}, "tle": {"line1": "1 66607U 25270V   25343.58335648 -.02002817  00000+0 -31907-1 0  9992", "line2": "2 66607  42.9999 211.1339 0001734 261.9631 149.6326 15.55508379  3790"}}, "geometry": {"type": "Point", "coordinates": [-20.936313170182363, 35.858252822673386]}}, {"type": "Feature", "properties": {"norad_id": 66608, "name": "STARLINK-36036", "group": "last-30-days", "lat": 34.13307284907849, "lon": -16.75968586046627, "alt_km": 398.6504902072684, "timestamp": "2025-12-09T18:55:16.023164+00:00", "meta": {"OBJECT_NAME": "STARLINK-36036", "OBJECT_ID": "2025-270W", "EPOCH": "2025-12-09T14:00:01.999872", "MEAN_MOTION": 15.55510291, "ECCENTRICITY": 0.00016669, "INCLINATION": 42.9994, "RA_OF_ASC_NODE": 211.1242, "ARG_OF_PERICENTER": 260.6297, "MEAN_ANOMALY": 154.8, "EPHEMERIS_TYPE": 0, "CLASSIFICATION_TYPE": "U", "NORAD_CAT_ID": 66608, "ELEMENT_SET_NO": 999, "REV_AT_EPOCH": 373, "BSTAR": -0.031979561, "MEAN_MOTION_DOT": -0.02006956, "MEAN_MOTION_DDOT": 0}, "tle": {"line1": "1 66608U 25270W   25343.58335648 -.02006956  00000+0 -31980-1 0  9992", "line2": "2 66608  42.9994 211.1242 0001666 260.6297 154.8000 15.55510291  3734"}}, "geometry": {"type": "Point", "coordinates": [-16.75968586046627, 34.13307284907849]}}, {"type": "Feature", "properties": {"norad_id": 66609, "name": "STARLINK-36034", "group": "last-30-days", "lat": 33.21859994872068, "lon": -14.735950559129238, "alt_km": 398.8061759572329, "timestamp": "2025-12-09T18:55:16.023176+00:00", "meta": {"OBJECT_NAME": "STARLINK-36034", "OBJECT_ID": "2025-270X", "EPOCH": "2025-12-09T14:00:01.999872", "MEAN_MOTION": 15.55504, "ECCENTRICITY": 0.00016726, "INCLINATION": 42.9995, "RA_OF_ASC_NODE": 211.1199, "ARG_OF_PERICENTER": 262.3612, "MEAN_ANOMALY": 154.9889, "EPHEMERIS_TYPE": 0, "CLASSIFICATION_TYPE": "U", "NORAD_CAT_ID": 66609, "ELEMENT_SET_NO": 999, "REV_AT_EPOCH": 373, "BSTAR": -0.031840762, "MEAN_MOTION_DOT": -0.01998738, "MEAN_MOTION_DDOT": 0}, "tle": {"line1": "1 66609U 25270X   25343.58335648 -.01998738  00000+0 -31841-1 0  9996", "line2": "2 66609  42.9995 211.1199 0001672 262.3612 154.9889 15.55504000  3731"}}, "geometry": {"type": "Point", "coordinates": [-14.735950559129238, 33.21859994872068]}}, {"type": "Feature", "properties": {"norad_id": 66610, "name": "STARLINK-35680", "group": "last-30-days", "lat": 32.27215802255507, "lon": -12.756221767873143, "alt_km": 399.01691591734834, "timestamp": "2025-12-09T18:55:16.023186+00:00", "meta": {"OBJECT_NAME": "STARLINK-35680", "OBJECT_ID": "2025-270Y", "EPOCH": "2025-12-09T14:00:01.999872", "MEAN_MOTION": 15.55507778, "ECCENTRICITY": 0.00017328, "INCLINATION": 42.9997, "RA_OF_ASC_NODE": 211.1146, "ARG_OF_PERICENTER": 266.2396, "MEAN_ANOMALY": 153.0252, "EPHEMERIS_TYPE": 0, "CLASSIFICATION_TYPE": "U", "NORAD_CAT_ID": 66610, "ELEMENT_SET_NO": 999, "REV_AT_EPOCH": 400, "BSTAR": -0.031905521, "MEAN_MOTION_DOT": -0.02002668, "MEAN_MOTION_DDOT": 0}, "tle": {"line1": "1 66610U 25270Y   25343.58335648 -.02002668  00000+0 -31906-1 0  9999", "line2": "2 66610  42.9997 211.1146 0001732 266.2396 153.0252 15.55507778  4006"}}, "geometry": {"type": "Point", "coordinates": [-12.756221767873143, 32.27215802255507]}}, {"type": "Feature", "properties": {"norad_id": 66611, "name": "STARLINK-35583", "group": "last-30-days", "lat": 31.29525543610335, "lon": -10.818093119963542, "alt_km": 399.1017290535192, "timestamp": "2025-12-09T18:55:16.023198+00:00", "meta": {"OBJECT_NAME": "STARLINK-35583", "OBJECT_ID": "2025-270Z", "EPOCH": "2025-12-09T14:00:01.999872", "MEAN_MOTION": 15.55507426, "ECCENTRICITY": 0.00016859, "INCLINATION": 42.9998, "RA_OF_ASC_NODE": 211.1094, "ARG_OF_PERICENTER": 264.8968, "MEAN_ANOMALY": 156.2857, "EPHEMERIS_TYPE": 0, "CLASSIFICATION_TYPE": "U", "NORAD_CAT_ID": 66611, "ELEMENT_SET_NO": 999, "REV_AT_EPOCH": 400, "BSTAR": -0.031905861, "MEAN_MOTION_DOT": -0.02002634, "MEAN_MOTION_DDOT": 0}, "tle": {"line1": "1 66611U 25270Z   25343.58335648 -.02002634  00000+0 -31906-1 0  9993", "line2": "2 66611  42.9998 211.1094 0001685 264.8968 156.2857 15.55507426  4002"}}, "geometry": {"type": "Point", "coordinates": [-10.818093119963542, 31.29525543610335]}}, {"type": "Feature", "properties": {"norad_id": 66612, "name": "STARLINK-36039", "group": "last-30-days", "lat": 30.289294963654108, "lon": -8.919661862052155, "alt_km": 399.2167421733193, "timestamp": "2025-12-09T18:55:16.023208+00:00", "meta": {"OBJECT_NAME": "STARLINK-36039", "OBJECT_ID": "2025-270AA", "EPOCH": "2025-12-09T14:00:01.999872", "MEAN_MOTION": 15.55504545, "ECCENTRICITY": 0.00016351, "INCLINATION": 42.9999, "RA_OF_ASC_NODE": 211.1042, "ARG_OF_PERICENTER": 264.978, "MEAN_ANOMALY": 158.1239, "EPHEMERIS_TYPE": 0, "CLASSIFICATION_TYPE": "U", "NORAD_CAT_ID": 66612, "ELEMENT_SET_NO": 999, "REV_AT_EPOCH": 389, "BSTAR": -0.031861462, "MEAN_MOTION_DOT": -0.01999914, "MEAN_MOTION_DDOT": 0}, "tle": {"line1": "1 66612U 25270AA  25343.58335648 -.01999914  00000+0 -31861-1 0  9999", "line2": "2 66612  42.9999 211.1042 0001635 264.9780 158.1239 15.55504545  3895"}}, "geometry": {"type": "Point", "coordinates": [-8.919661862052155, 30.289294963654108]}}, {"type": "Feature", "properties": {"norad_id": 66613, "name": "STARLINK-36037", "group": "last-30-days", "lat": 29.25677672951286, "lon": -7.06090651004076, "alt_km": 399.41908994661935, "timestamp": "2025-12-09T18:55:16.023251+00:00", "meta": {"OBJECT_NAME": "STARLINK-36037", "OBJECT_ID": "2025-270AB", "EPOCH": "2025-12-09T14:00:01.999872", "MEAN_MOTION": 15.55505564, "ECCENTRICITY": 0.00016816, "INCLINATION": 42.9997, "RA_OF_ASC_NODE": 211.0997, "ARG_OF_PERICENTER": 267.6646, "MEAN_ANOMALY": 157.3535, "EPHEMERIS_TYPE": 0, "CLASSIFICATION_TYPE": "U", "NORAD_CAT_ID": 66613, "ELEMENT_SET_NO": 999, "REV_AT_EPOCH": 389, "BSTAR": -0.031875312, "MEAN_MOTION_DOT": -0.0200079, "MEAN_MOTION_DDOT": 0}, "tle": {"line1": "1 66613U 25270AB  25343.58335648 -.02000790  00000+0 -31875-1 0  9991", "line2": "2 66613  42.9997 211.0997 0001681 267.6646 157.3535 15.55505564  3896"}}, "geometry": {"type": "Point", "coordinates": [-7.06090651004076, 29.25677672951286]}}, {"type": "Feature", "properties": {"norad_id": 66614, "name": "STARLINK-36040", "group": "last-30-days", "lat": 27.11798292277235, "lon": -3.4565779222485755, "alt_km": 399.627190647966, "timestamp": "2025-12-09T18:55:16.023266+00:00", "meta": {"OBJECT_NAME": "STARLINK-36040", "OBJECT_ID": "2025-270AC", "EPOCH": "2025-12-09T14:00:01.999872", "MEAN_MOTION": 15.55511611, "ECCENTRICITY": 0.00016378, "INCLINATION": 42.9994, "RA_OF_ASC_NODE": 211.0899, "ARG_OF_PERICENTER": 264.7055, "MEAN_ANOMALY": 164.1434, "EPHEMERIS_TYPE": 0, "CLASSIFICATION_TYPE": "U", "NORAD_CAT_ID": 66614, "ELEMENT_SET_NO": 999, "REV_AT_EPOCH": 373, "BSTAR": -0.032012925, "MEAN_MOTION_DOT": -0.020089, "MEAN_MOTION_DDOT": 0}, "tle": {"line1": "1 66614U 25270AC  25343.58335648 -.02008900  00000+0 -32013-1 0  9998", "line2": "2 66614  42.9994 211.0899 0001637 264.7055 164.1434 15.55511611  3735"}}, "geometry": {"type": "Point", "coordinates": [-3.4565779222485755, 27.11798292277235]}}, {"type": "Feature", "properties": {"norad_id": 66615, "name": "STARLINK-35988", "group": "last-30-days", "lat": 28.200140379706447, "lon": -5.241948325625805, "alt_km": 399.5069877185151, "timestamp": "2025-12-09T18:55:16.023276+00:00", "meta": {"OBJECT_NAME": "STARLINK-35988", "OBJECT_ID": "2025-270AD", "EPOCH": "2025-12-09T14:00:01.999872", "MEAN_MOTION": 15.555103, "ECCENTRICITY": 0.00017261, "INCLINATION": 42.9995, "RA_OF_ASC_NODE": 211.0951, "ARG_OF_PERICENTER": 263.5403, "MEAN_ANOMALY": 163.3925, "EPHEMERIS_TYPE": 0, "CLASSIFICATION_TYPE": "U", "NORAD_CAT_ID": 66615, "ELEMENT_SET_NO": 999, "REV_AT_EPOCH": 373, "BSTAR": -0.032034903, "MEAN_MOTION_DOT": -0.02010102, "MEAN_MOTION_DDOT": 0}, "tle": {"line1": "1 66615U 25270AD  25343.58335648 -.02010102  00000+0 -32035-1 0  9990", "line2": "2 66615  42.9995 211.0951 0001726 263.5403 163.3925 15.55510300  3739"}}, "geometry": {"type": "Point", "coordinates": [-5.241948325625805, 28.200140379706447]}}, {"type": "Feature", "properties": {"norad_id": 66616, "name": "STARLINK-35391", "group": "last-30-days", "lat": 26.013905410063828, "lon": -1.7051626380742588, "alt_km": 399.80846458933047, "timestamp": "2025-12-09T18:55:16.023290+00:00", "meta": {"OBJECT_NAME": "STARLINK-35391", "OBJECT_ID": "2025-270AE", "EPOCH": "2025-12-09T14:00:01.999872", "MEAN_MOTION": 15.55514004, "ECCENTRICITY": 0.00016136, "INCLINATION": 42.9998, "RA_OF_ASC_NODE": 211.0853, "ARG_OF_PERICENTER": 267.2078, "MEAN_ANOMALY": 163.5578, "EPHEMERIS_TYPE": 0, "CLASSIFICATION_TYPE": "U", "NORAD_CAT_ID": 66616, "ELEMENT_SET_NO": 999, "REV_AT_EPOCH": 400, "BSTAR": -0.032100559, "MEAN_MOTION_DOT": -0.02013965, "MEAN_MOTION_DDOT": 0}, "tle": {"line1": "1 66616U 25270AE  25343.58335648 -.02013965  00000+0 -32101-1 0  9995", "line2": "2 66616  42.9998 211.0853 0001613 267.2078 163.5578 15.55514004  4000"}}, "geometry": {"type": "Point", "coordinates": [-1.7051626380742588, 26.013905410063828]}}]}